*******************************************************************************
Ephemeris / WWW_USER Mon Mar 24 08:17:42 2025 Pasadena, USA      / Horizons    
*******************************************************************************
Target body name: (2018 UG3)                      {source: JPL#15}
Center body name: Earth (399)                     {source: DE441}
Center-site name: Mauna Kea
*******************************************************************************
Start time      : A.D. 2018-Nov-22 03:51:00.0000 UT      
Stop  time      : A.D. 2018-Nov-22 16:25:00.0000 UT      
Step-size       : 1 minutes
*******************************************************************************
Target pole/equ : undefined
Target radii    : undefined                                                    
Center geodetic : 204.5278, 19.8260847, 4.21024   {E-lon(deg),Lat(deg),Alt(km)}
Center cylindric: 204.5278, 6006.35451, 2151.0229 {E-lon(deg),Dxy(km),Dz(km)}
Center pole/equ : ITRF93                          {East-longitude positive}
Center radii    : 6378.137, 6378.137, 6356.752 km {Equator_a, b, pole_c}       
Target primary  : Sun
Vis. interferer : MOON (R_eq= 1737.400) km        {source: DE441}
Rel. light bend : Sun                             {source: DE441}
Rel. lght bnd GM: 1.3271E+11 km^3/s^2                                          
Small-body perts: Yes                             {source: SB441-N16}
Atmos refraction: NO (AIRLESS)
RA format       : HMS
Time format     : CAL 
Calendar mode   : Mixed Julian/Gregorian
RTS-only print  : NO       
EOP file        : eop.250321.p250617                                           
EOP coverage    : DATA-BASED 1962-JAN-20 TO 2025-MAR-21. PREDICTS-> 2025-JUN-16
Units conversion: 1 au= 149597870.700 km, c= 299792.458 km/s, 1 day= 86400.0 s 
Table cut-offs 1: Elevation (-90.0deg=NO ),Airmass (>38.000=NO), Daylight (YES)
Table cut-offs 2: Solar elongation (  0.0,180.0=NO ),Local Hour Angle( 0.0=NO )
Table cut-offs 3: RA/DEC angular rate (     0.0=NO )                           
*******************************************************************************
Initial IAU76/J2000 heliocentric ecliptic osculating elements (au, days, deg.):
  EPOCH=  2458429.5 ! 2018-Nov-07.00 (TDB)         Residual RMS= .46194        
   EC= .4227384440318329   QR= .9585039390071354   TP= 2458393.2526467689      
   OM= 47.27406359171053   W=  314.2704472892426   IN= 6.159551265235018       
  Equivalent ICRF heliocentric cartesian coordinates (au, au/d):
   X= 7.430529944075828E-01  Y= 6.714692173902916E-01  Z= 2.851295671149762E-01
  VX=-1.040372162305418E-02 VY= 1.447630012002514E-02 VZ= 8.505235531163944E-03
Asteroid physical parameters (km, seconds, rotational period in hours):        
   GM= n.a.                RAD= n.a.               ROTPER= n.a.                
   H= 24.5                 G= .150                 B-V= n.a.                   
                           ALBEDO= n.a.            STYP= n.a.                  
*******************************************************************************
 Date__(UT)__HR:MN     R.A._________(ICRF)_________DEC
******************************************************
$$SOE
 2018-Nov-22 16:09 Nm  03 35 43.907193 +31 14 54.39604
 2018-Nov-22 16:10 Nm  03 35 43.937661 +31 14 55.31507
 2018-Nov-22 16:11 Nm  03 35 43.968221 +31 14 56.23408
 2018-Nov-22 16:12 Cm  03 35 43.998873 +31 14 57.15307
 2018-Nov-22 16:13 C   03 35 44.029617 +31 14 58.07205
 2018-Nov-22 16:14 C   03 35 44.060454 +31 14 58.99101
 2018-Nov-22 16:15 C   03 35 44.091382 +31 14 59.90996
 2018-Nov-22 16:16 C   03 35 44.122403 +31 15 00.82890
 2018-Nov-22 16:17 C   03 35 44.153516 +31 15 01.74784
 2018-Nov-22 16:18 C   03 35 44.184720 +31 15 02.66677
 2018-Nov-22 16:19 C   03 35 44.216017 +31 15 03.58571
 2018-Nov-22 16:20 C   03 35 44.247406 +31 15 04.50464
 2018-Nov-22 16:21 C   03 35 44.278886 +31 15 05.42359
 2018-Nov-22 16:22 C   03 35 44.310458 +31 15 06.34254
 2018-Nov-22 16:23 C   03 35 44.342122 +31 15 07.26150
 2018-Nov-22 16:24 C   03 35 44.373877 +31 15 08.18048
 2018-Nov-22 16:25 C   03 35 44.405724 +31 15 09.09947
